ORBCOMM FM20 [+]        
1 25416U 98046D   23337.36140713  .00002079  00000+0  77765-3 0  9990
2 25416  44.9955 316.1967 0002414 292.8083  67.2508 14.34665134323511
ORBCOMM FM16 [-]        
1 25417U 98046E   23337.41626506  .00002616  00000+0  95080-3 0  9993
2 25417  44.9951 312.7668 0005243 334.1625  25.8960 14.35439222323445
ORBCOMM FM15 [-]        
1 25418U 98046F   23337.34415791  .00002858  00000+0  10393-2 0  9999
2 25418  44.9986 316.8103 0004745 333.0162  27.0437 14.35191077323449
ORBCOMM FM14 [-]        
1 25419U 98046G   23337.34452858  .00002566  00000+0  93584-3 0  9995
2 25419  44.9979 316.1062 0004080 319.8281 194.1046 14.35311085323394
ORBCOMM FM13 [+]        
1 25420U 98046H   23337.01006024  .00002262  00000+0  84064-3 0  9997
2 25420  44.9987 321.7489 0006020 321.5214  38.5203 14.34723403322421
ORBCOMM FM21 [-]        
1 25475U 98053A   23337.58441489  .00001884  00000+0  70822-3 0  9991
2 25475  45.0097  43.1829 0002237 255.0184 105.0416 14.34729367316526
ORBCOMM FM22 [-]        
1 25476U 98053B   23337.54336452  .00002175  00000+0  80380-3 0  9995
2 25476  45.0089  41.2281 0003882 264.5856  95.4548 14.35129647316509
ORBCOMM FM23 [-]        
1 25477U 98053C   23337.54513749  .00002063  00000+0  77112-3 0  9997
2 25477  45.0097  45.8178 0003136 264.5256  95.5234 14.34719529316663
